ONEWEB-0271             
1 48989U 21060Y   24260.79638452  .00000173  00000+0  41854-3 0  9990
2 48989  87.9171 355.8998 0001821 112.7323 247.4001 13.16592372155661
ONEWEB-0272             
1 48990U 21060Z   24261.50252747  .00000055  00000+0  11059-3 0  9994
2 48990  87.9176 355.7895 0001783 109.9181 250.2142 13.16594182157009
ONEWEB-0273             
1 48991U 21060AA  24260.76470943 -.00000380  00000+0 -10284-2 0  9993
2 48991  87.9173 355.9218 0001993 104.6152 255.5200 13.16594613155584
ONEWEB-0274             
1 48992U 21060AB  24261.55001872  .00000406  00000+0  10293-2 0  9990
2 48992  87.9187 355.7864 0001356 108.8686 251.2592 13.16590490157023
ONEWEB-0275             
1 48993U 21060AC  24261.53893055 -.00000019  00000+0 -82368-4 0  9997
2 48993  87.9174 355.7640 0001835 105.6811 254.4522 13.16592985156948
ONEWEB-0276             
1 48994U 21060AD  24261.49619800  .00000242  00000+0  60016-3 0  9998
2 48994  87.9175 355.7688 0002056 107.3506 252.7850 13.16594359156962
ONEWEB-0277             
1 48995U 21060AE  24261.50886215  .00000167  00000+0  40315-3 0  9993
2 48995  87.9176 355.8041 0002029 115.6834 244.4507 13.16593853156947
ONEWEB-0278             
1 48996U 21060AF  24261.49936676  .00000163  00000+0  39366-3 0  9999
2 48996  87.9174 355.7651 0002074  96.1535 263.9832 13.16594114157098
ONEWEB-0279             
1 48997U 21060AG  24260.82330947  .00000025  00000+0  30869-4 0  9992
2 48997  87.9173 355.8962 0001864 114.8757 245.2567 13.16593148155625
ONEWEB-0280             
1 48998U 21060AH  24261.21754928  .00002228  00000+0  57941-2 0  9991
2 48998  87.9176 355.8202 0002547  84.5906 275.5515 13.16584153156901
ONEWEB-0281             
1 48999U 21060AJ  24261.52786427  .00000091  00000+0  20559-3 0  9997
2 48999  87.9173 355.7599 0001657 100.6864 259.4453 13.16593546157034
ONEWEB-0282             
1 49000U 21060AK  24260.72197264  .00000328  00000+0  82411-3 0  9995
2 49000  87.9173 355.9365 0002094 108.3290 251.8069 13.16594520155596
ONEWEB-0283             
1 49001U 21060AL  24260.71089995  .00000067  00000+0  14208-3 0  9995
2 49001  87.9173 355.9441 0001818 110.4612 249.6714 13.16593677155603
ONEWEB-0284             
1 49002U 21060AM  24260.70455835  .00000048  00000+0  91984-4 0  9991
2 49002  87.9166 355.9236 0002059 103.5010 256.6350 13.16592739155580
ONEWEB-0285             
1 49075U 21075A   24260.65027733 -.00000258  00000+0 -75341-3 0  9996
2 49075  87.8877 117.8430 0001795  81.1482 278.9850 13.12443910151455
ONEWEB-0286             
1 49076U 21075B   24261.53659695  .00000041  00000+0  79733-4 0  9991
2 49076  87.8871 117.6663 0001747  72.0542 288.0777 13.12441784151906
ONEWEB-0287             
1 49077U 21075C   24260.69576769 -.00000029  00000+0 -10666-3 0  9995
2 49077  87.9134 133.0471 0002103  75.5129 284.6236 13.17661707149548
ONEWEB-0288             
1 49078U 21075D   24261.52281510  .00000484  00000+0  13092-2 0  9994
2 49078  87.8869 117.6725 0001867  79.0132 281.1206 13.12440381152532
ONEWEB-0289             
1 49079U 21075E   24260.64890651  .00000119  00000+0  27452-3 0  9990
2 49079  87.9139 133.0852 0001796  81.0233 279.1102 13.17646549150116
ONEWEB-0290             
1 49080U 21075F   24260.70707066  .00000031  00000+0  45777-4 0  9990
2 49080  87.9132 133.0331 0002282  94.2933 265.8460 13.17652310149533
ONEWEB-0291             
1 49081U 21075G   24260.69092745  .00000037  00000+0  62442-4 0  9994
2 49081  87.9130 133.0526 0002047  77.5212 282.6148 13.17649818149529
ONEWEB-0293             
1 49082U 21075H   24261.40020109  .00000101  00000+0  22816-3 0  9992
2 49082  87.9133 132.9305 0002042  78.3955 281.7406 13.17651260150628
ONEWEB-0294             
1 49083U 21075J   24261.30058847  .00000187  00000+0  48483-3 0  9994
2 49083  87.8870 117.7159 0002339  80.8660 279.2734 13.12442014151890
ONEWEB-0295             
1 49084U 21075K   24261.39938984  .00000122  00000+0  28160-3 0  9992
2 49084  87.9136 132.9082 0002024  69.4728 290.6621 13.17648256150566
ONEWEB-0296             
1 49085U 21075L   24260.59499376  .00000447  00000+0  12071-2 0  9994
2 49085  87.8874 117.8594 0002365  70.7586 289.3798 13.12443284151807
ONEWEB-0297             
1 49086U 21075M   24261.31193109  .00000035  00000+0  62710-4 0  9991
2 49086  87.8880 117.7300 0001684  78.5858 281.5459 13.12439843152502
ONEWEB-0298             
1 49087U 21075N   24261.40505331  .00000170  00000+0  40507-3 0  9995
2 49087  87.9132 132.9261 0001709  72.1240 288.0078 13.17650206150625
ONEWEB-0299             
1 49088U 21075P   24261.40666001  .00000151  00000+0  35549-3 0  9997
2 49088  87.9130 132.8913 0001749  69.2463 290.8856 13.17651398150588
ONEWEB-0300             
1 49089U 21075Q   24261.15135742  .00000078  00000+0  18014-3 0  9999
2 49089  87.8870 117.7435 0001332  84.7424 275.3856 13.12441934152507
ONEWEB-0301             
1 49090U 21075R   24261.36386567  .00000526  00000+0  14279-2 0  9993
2 49090  87.8870 117.7050 0001426  84.0255 276.1035 13.12444307151897
ONEWEB-0302             
1 49091U 21075S   24261.35087003  .00000279  00000+0  73880-3 0  9995
2 49091  87.8872 117.7066 0001956  78.1465 281.9883 13.12444515151887
ONEWEB-0304             
1 49092U 21075T   24260.69737783 -.00000258  00000+0 -69874-3 0  9996
2 49092  87.9135 133.0512 0001942  73.6253 286.5092 13.17647224149492
ONEWEB-0305             
1 49093U 21075U   24261.37272586  .00000161  00000+0  38260-3 0  9994
2 49093  87.9130 132.9014 0001875  64.5684 295.5642 13.17651847150584
ONEWEB-0308             
1 49094U 21075V   24261.34438650  .00000004  00000+0 -25272-4 0  9995
2 49094  87.8870 117.7061 0001673  81.9663 278.1655 13.12444346151899
ONEWEB-0309             
1 49095U 21075W   24261.14976886 -.00000222  00000+0 -60433-3 0  9992
2 49095  87.9134 132.9535 0002343  82.3509 277.7888 13.17644870150541
ONEWEB-0310             
1 49096U 21075X   24261.05403597  .00000580  00000+0  15756-2 0  9999
2 49096  87.8881 117.7802 0001868  82.9909 277.1432 13.12442021152482
ONEWEB-0311             
1 49097U 21075Y   24261.38404219  .00000064  00000+0  13194-3 0  9990
2 49097  87.9134 132.9080 0001809  63.8600 296.2717 13.17651438150635
ONEWEB-0312             
1 49098U 21075Z   24261.39858046  .00000114  00000+0  26158-3 0  9993
2 49098  87.9132 132.9366 0002143  70.5681 289.5682 13.17651945150591
ONEWEB-0313             
1 49099U 21075AA  24261.07220987 -.00000278  00000+0 -74884-3 0  9998
2 49099  87.9134 133.0042 0001995  73.3732 286.7619 13.17647509150566
ONEWEB-0314             
1 49100U 21075AB  24261.36949280 -.00000191  00000+0 -52542-3 0  9998
2 49100  87.9130 132.8994 0002115  69.2421 290.8937 13.17648012150561
ONEWEB-0315             
1 49101U 21075AC  24261.56174926 -.00000263  00000+0 -76666-3 0  9991
2 49101  87.8869 117.6553 0001515  66.8757 293.2531 13.12442674152537
ONEWEB-0316             
1 49102U 21075AD  24261.49339720  .00000113  00000+0  25397-3 0  9996
2 49102  87.9066 102.4014 0001699  78.0560 282.0763 13.18687589154179
ONEWEB-0317             
1 49103U 21075AE  24261.55524934 -.00000287  00000+0 -83438-3 0  9991
2 49103  87.8872 117.6674 0001836  95.9134 264.2204 13.12442443152545
ONEWEB-0318             
1 49104U 21075AF  24261.49023715  .00000079  00000+0  16763-3 0  9990
2 49104  87.9063 102.3932 0001654  74.8280 285.3035 13.18687328154124
ONEWEB-0319             
1 49105U 21075AG  24261.38566617  .00000146  00000+0  34379-3 0  9990
2 49105  87.9132 132.9331 0001873  62.1355 297.9966 13.17650063150606
ONEWEB-0323             
1 49106U 21075AH  24261.54551042 -.00000405  00000+0 -11612-2 0  9999
2 49106  87.8870 117.6565 0001772  74.3522 285.7802 13.12440785151915
ONEWEB-0329             
1 49107U 21075AJ  24261.39373982  .00000097  00000+0  21732-3 0  9998
2 49107  87.9131 132.9355 0001924  72.7853 287.3489 13.17650663150586
ONEWEB-0330             
1 49108U 21075AK  24261.39535990  .00000072  00000+0  15350-3 0  9990
2 49108  87.9135 132.9362 0002013  74.2737 285.8616 13.17648999150626
ONEWEB-0292             
1 49186U 21083A   24261.48165795 -.00000117  00000+0 -35563-3 0  9997
2 49186  87.8854  87.1493 0001596  82.3014 277.8296 13.13468933148501
ONEWEB-0303             
1 49187U 21083B   24260.95594370  .00000032  00000+0  49305-4 0  9998
2 49187  87.9063 102.5003 0001662  77.5635 282.5683 13.18687422145863
ONEWEB-0306             
1 49188U 21083C   24261.55346145  .00000043  00000+0  77067-4 0  9999
2 49188  87.9063 102.3676 0001856  87.8406 272.2938 13.18686141147265
ONEWEB-0307             
1 49189U 21083D   24261.01904193 -.00000175  00000+0 -51550-3 0  9990
2 49189  87.8855  87.2427 0002023  91.6025 268.5336 13.13470653148441
ONEWEB-0320             
1 49190U 21083E   24261.10453056  .00000075  00000+0  15709-3 0  9992
2 49190  87.9064 102.4827 0001762  83.9525 276.1808 13.18687706147169
ONEWEB-0321             
1 49191U 21083F   24260.94997508  .00000024  00000+0  26599-4 0  9993
2 49191  87.9237  41.3865 0001814 104.3361 255.7974 13.20773549152582
ONEWEB-0322             
1 49192U 21083G   24260.93889871 -.00000233  00000+0 -67300-3 0  9994
2 49192  87.8856  87.2478 0002001 100.5497 259.5858 13.13471650147133
ONEWEB-0324             
1 49193U 21083H   24261.54555108  .00000029  00000+0  39718-4 0  9990
2 49193  87.9063 102.3757 0001941  78.6627 281.4723 13.18687812147247
ONEWEB-0325             
1 49194U 21083J   24261.55031038  .00000024  00000+0  28528-4 0  9995
2 49194  87.9064 102.3899 0001711  86.0867 274.0461 13.18686344147257
ONEWEB-0326             
1 49195U 21083K   24261.56452617  .00000001  00000+0 -29103-4 0  9993
2 49195  87.9062 102.3835 0001705  67.2871 292.8441 13.18688009147240
ONEWEB-0327             
1 49196U 21083L   24260.95059505  .00000109  00000+0  24809-3 0  9990
2 49196  87.9065 102.5283 0001533  73.0554 287.0745 13.17171089145903
